[{"OBJECT_NAME":"CS1","OBJECT_ID":"2021-088B","EPOCH":"2026-03-09T18:02:30.253920","MEAN_MOTION":15.31848439,"ECCENTRICITY":0.00141292,"INCLINATION":97.3882,"RA_OF_ASC_NODE":132.1684,"ARG_OF_PERICENTER":78.0335,"MEAN_ANOMALY":282.249,"EPHEMERIS_TYPE":0,"CLASSIFICATION_TYPE":"U","NORAD_CAT_ID":49261,"ELEMENT_SET_NO":999,"REV_AT_EPOCH":24518,"BSTAR":0.00051175576,"MEAN_MOTION_DOT":0.00015722,"MEAN_MOTION_DDOT":0},{"OBJECT_NAME":"STARLINK-32281","OBJECT_ID":"2024-138W","EPOCH":"2026-03-09T23:19:56.402112","MEAN_MOTION":15.30187967,"ECCENTRICITY":0.000111,"INCLINATION":53.1606,"RA_OF_ASC_NODE":308.0925,"ARG_OF_PERICENTER":112.0325,"MEAN_ANOMALY":248.0794,"EPHEMERIS_TYPE":0,"CLASSIFICATION_TYPE":"U","NORAD_CAT_ID":60375,"ELEMENT_SET_NO":999,"REV_AT_EPOCH":9057,"BSTAR":3.9374011e-5,"MEAN_MOTION_DOT":8.07e-6,"MEAN_MOTION_DDOT":0}]
